{"type": "FeatureCollection", "features": [ {"type": "Feature", "properties": {"norad_id": 34908, "name": "COSMOS 2251 DEB", "group": "cosmos-2251-debris", "lat": -47.12056979372997, "lon": 21.888102366249928, "alt_km": 782.64813175378, "timestamp": "2025-12-03T22:42:33.028140+00:00", "meta": {"OBJECT_NAME": "COSMOS 2251 DEB", "OBJECT_ID": "1993-036ADD", "EPOCH": "2025-12-03T11:19:03.946944", "MEAN_MOTION": 14.37353122, "ECCENTRICITY": 0.0039845, "INCLINATION": 74.0586, "RA_OF_ASC_NODE": 40.6868, "ARG_OF_PERICENTER": 59.9584, "MEAN_ANOMALY": 315.8694, "EPHEMERIS_TYPE": 0, "CLASSIFICATION_TYPE": "U", "NORAD_CAT_ID": 34908, "ELEMENT_SET_NO": 999, "REV_AT_EPOCH": 87146, "BSTAR": 0.00072639, "MEAN_MOTION_DOT": 2.163e-05, "MEAN_MOTION_DDOT": 0}, "tle": {"line1": "1 34908U 93036ADD 25337.47157346  .00002163  00000+0  72639-3 0  9993", "line2": "2 34908  74.0586  40.6868 0039845  59.9584 315.8694 14.37353122871460"}}, "geometry": {"type": "Point", "coordinates": [21.888102366249928, -47.12056979372997]}}, {"type": "Feature", "properties": {"norad_id": 34909, "name": "COSMOS 2251 DEB", "group": "cosmos-2251-debris", "lat": -62.462914472658966, "lon": -52.78618262338049, "alt_km": 585.8655350894169, "timestamp": "2025-12-03T22:42:33.028150+00:00", "meta": {"OBJECT_NAME": "COSMOS 2251 DEB", "OBJECT_ID": "1993-036ADE", "EPOCH": "2025-12-02T16:20:39.593184", "MEAN_MOTION": 14.77677518, "ECCENTRICITY": 0.00852182, "INCLINATION": 74.0135, "RA_OF_ASC_NODE": 96.3432, "ARG_OF_PERICENTER": 234.3085, "MEAN_ANOMALY": 125.0138, "EPHEMERIS_TYPE": 0, "CLASSIFICATION_TYPE": "U", "NORAD_CAT_ID": 34909, "ELEMENT_SET_NO": 999, "REV_AT_EPOCH": 66703, "BSTAR": 0.00090528683, "MEAN_MOTION_DOT": 6.857e-05, "MEAN_MOTION_DDOT": 0}, "tle": {"line1": "1 34909U 93036ADE 25336.68101381  .00006857  00000+0  90529-3 0  9996", "line2": "2 34909  74.0135  96.3432 0085218 234.3085 125.0138 14.77677518667038"}}, "geometry": {"type": "Point", "coordinates": [-52.78618262338049, -62.462914472658966]}}, {"type": "Feature", "properties": {"norad_id": 34910, "name": "COSMOS 2251 DEB", "group": "cosmos-2251-debris", "lat": -37.70751927826032, "lon": 102.37712669766412, "alt_km": 1076.6670147757623, "timestamp": "2025-12-03T22:42:33.028160+00:00", "meta": {"OBJECT_NAME": "COSMOS 2251 DEB", "OBJECT_ID": "1993-036ADF", "EPOCH": "2025-12-02T16:32:32.334432", "MEAN_MOTION": 13.37643089, "ECCENTRICITY": 0.0468107, "INCLINATION": 73.8742, "RA_OF_ASC_NODE": 117.2836, "ARG_OF_PERICENTER": 237.8282, "MEAN_ANOMALY": 146.7075, "EPHEMERIS_TYPE": 0, "CLASSIFICATION_TYPE": "U", "NORAD_CAT_ID": 34910, "ELEMENT_SET_NO": 999, "REV_AT_EPOCH": 81390, "BSTAR": 0.001305183, "MEAN_MOTION_DOT": 1.267e-05, "MEAN_MOTION_DDOT": 0}, "tle": {"line1": "1 34910U 93036ADF 25336.68926313  .00001267  00000+0  13052-2 0  9993", "line2": "2 34910  73.8742 117.2836 0468107 237.8282 146.7075 13.37643089813901"}}, "geometry": {"type": "Point", "coordinates": [102.37712669766412, -37.70751927826032]}}, {"type": "Feature", "properties": {"norad_id": 34911, "name": "COSMOS 2251 DEB", "group": "cosmos-2251-debris", "lat": -24.214783082355552, "lon": 88.8965529192768, "alt_km": 759.1598021682212, "timestamp": "2025-12-03T22:42:33.028170+00:00", "meta": {"OBJECT_NAME": "COSMOS 2251 DEB", "OBJECT_ID": "1993-036ADG", "EPOCH": "2025-12-03T06:00:27.635040", "MEAN_MOTION": 14.59344505, "ECCENTRICITY": 0.008317, "INCLINATION": 74.0412, "RA_OF_ASC_NODE": 262.8282, "ARG_OF_PERICENTER": 30.7099, "MEAN_ANOMALY": 119.8806, "EPHEMERIS_TYPE": 0, "CLASSIFICATION_TYPE": "U", "NORAD_CAT_ID": 34911, "ELEMENT_SET_NO": 999, "REV_AT_EPOCH": 88448, "BSTAR": 0.00027459, "MEAN_MOTION_DOT": 1.332e-05, "MEAN_MOTION_DDOT": 0}, "tle": {"line1": "1 34911U 93036ADG 25337.25031985  .00001332  00000+0  27459-3 0  9990", "line2": "2 34911  74.0412 262.8282 0083170  30.7099 119.8806 14.59344505884480"}}, "geometry": {"type": "Point", "coordinates": [88.8965529192768, -24.214783082355552]}}, {"type": "Feature", "properties": {"norad_id": 34913, "name": "COSMOS 2251 DEB", "group": "cosmos-2251-debris", "lat": -74.01740167922559, "lon": -151.8077122020302, "alt_km": 794.4637601754439, "timestamp": "2025-12-03T22:42:33.028179+00:00", "meta": {"OBJECT_NAME": "COSMOS 2251 DEB", "OBJECT_ID": "1993-036ADJ", "EPOCH": "2025-12-02T16:08:10.454208", "MEAN_MOTION": 14.34632081, "ECCENTRICITY": 0.00200026, "INCLINATION": 74.0276, "RA_OF_ASC_NODE": 300.9473, "ARG_OF_PERICENTER": 54.1655, "MEAN_ANOMALY": 119.3628, "EPHEMERIS_TYPE": 0, "CLASSIFICATION_TYPE": "U", "NORAD_CAT_ID": 34913, "ELEMENT_SET_NO": 999, "REV_AT_EPOCH": 65043, "BSTAR": 7.0680463e-05, "MEAN_MOTION_DOT": 1.74e-06, "MEAN_MOTION_DDOT": 0}, "tle": {"line1": "1 34913U 93036ADJ 25336.67234322  .00000174  00000+0  70680-4 0  9995", "line2": "2 34913  74.0276 300.9473 0020002  54.1655 119.3628 14.34632081650434"}}, "geometry": {"type": "Point", "coordinates": [-151.8077122020302, -74.01740167922559]}}, {"type": "Feature", "properties": {"norad_id": 34918, "name": "COSMOS 2251 DEB", "group": "cosmos-2251-debris", "lat": -55.814038988699565, "lon": -54.45987582217944, "alt_km": 672.8345287684515, "timestamp": "2025-12-03T22:42:33.028188+00:00", "meta": {"OBJECT_NAME": "COSMOS 2251 DEB", "OBJECT_ID": "1993-036ADP", "EPOCH": "2025-12-02T07:49:20.078112", "MEAN_MOTION": 14.60858458, "ECCENTRICITY": 0.0034182, "INCLINATION": 74.0712, "RA_OF_ASC_NODE": 333.4916, "ARG_OF_PERICENTER": 302.4495, "MEAN_ANOMALY": 120.4085, "EPHEMERIS_TYPE": 0, "CLASSIFICATION_TYPE": "U", "NORAD_CAT_ID": 34918, "ELEMENT_SET_NO": 999, "REV_AT_EPOCH": 65184, "BSTAR": 0.0024749, "MEAN_MOTION_DOT": 0.00012194, "MEAN_MOTION_DDOT": 0}, "tle": {"line1": "1 34918U 93036ADP 25336.32592683  .00012194  00000+0  24749-2 0  9997", "line2": "2 34918  74.0712 333.4916 0034182 302.4495 120.4085 14.60858458651845"}}, "geometry": {"type": "Point", "coordinates": [-54.45987582217944, -55.814038988699565]}}, {"type": "Feature", "properties": {"norad_id": 34924, "name": "COSMOS 2251 DEB", "group": "cosmos-2251-debris", "lat": -26.974851129105318, "lon": 97.84834894814658, "alt_km": 728.5032124433246, "timestamp": "2025-12-03T22:42:33.028197+00:00", "meta": {"OBJECT_NAME": "COSMOS 2251 DEB", "OBJECT_ID": "1993-036ADV", "EPOCH": "2025-12-02T04:22:00.331392", "MEAN_MOTION": 14.59847465, "ECCENTRICITY": 0.0055391, "INCLINATION": 74.0396, "RA_OF_ASC_NODE": 109.5877, "ARG_OF_PERICENTER": 196.6336, "MEAN_ANOMALY": 226.616, "EPHEMERIS_TYPE": 0, "CLASSIFICATION_TYPE": "U", "NORAD_CAT_ID": 34924, "ELEMENT_SET_NO": 999, "REV_AT_EPOCH": 87569, "BSTAR": 0.0014998, "MEAN_MOTION_DOT": 7.306e-05, "MEAN_MOTION_DDOT": 0}, "tle": {"line1": "1 34924U 93036ADV 25336.18194828  .00007306  00000+0  14998-2 0  9991", "line2": "2 34924  74.0396 109.5877 0055391 196.6336 226.6160 14.59847465875698"}}, "geometry": {"type": "Point", "coordinates": [97.84834894814658, -26.974851129105318]}}, {"type": "Feature", "properties": {"norad_id": 34944, "name": "COSMOS 2251 DEB", "group": "cosmos-2251-debris", "lat": 72.76699550304735, "lon": -41.998707970021066, "alt_km": 682.916711938251, "timestamp": "2025-12-03T22:42:33.028207+00:00", "meta": {"OBJECT_NAME": "COSMOS 2251 DEB", "OBJECT_ID": "1993-036ADX", "EPOCH": "2025-12-03T10:26:13.836768", "MEAN_MOTION": 14.14147851, "ECCENTRICITY": 0.0219699, "INCLINATION": 73.7497, "RA_OF_ASC_NODE": 248.822, "ARG_OF_PERICENTER": 98.0447, "MEAN_ANOMALY": 264.5682, "EPHEMERIS_TYPE": 0, "CLASSIFICATION_TYPE": "U", "NORAD_CAT_ID": 34944, "ELEMENT_SET_NO": 999, "REV_AT_EPOCH": 63951, "BSTAR": 0.00087622, "MEAN_MOTION_DOT": 2.079e-05, "MEAN_MOTION_DDOT": 0}, "tle": {"line1": "1 34944U 93036ADX 25337.43488237  .00002079  00000+0  87622-3 0  9999", "line2": "2 34944  73.7497 248.8220 0219699  98.0447 264.5682 14.14147851639510"}}, "geometry": {"type": "Point", "coordinates": [-41.998707970021066, 72.76699550304735]}}, {"type": "Feature", "properties": {"norad_id": 34946, "name": "COSMOS 2251 DEB", "group": "cosmos-2251-debris", "lat": 62.5002070774925, "lon": 145.5709581736707, "alt_km": 649.4095654440434, "timestamp": "2025-12-03T22:42:33.028216+00:00", "meta": {"OBJECT_NAME": "COSMOS 2251 DEB", "OBJECT_ID": "1993-036ADZ", "EPOCH": "2025-12-03T10:41:59.541792", "MEAN_MOTION": 14.61913344, "ECCENTRICITY": 0.004909, "INCLINATION": 74.0234, "RA_OF_ASC_NODE": 359.9203, "ARG_OF_PERICENTER": 139.9873, "MEAN_ANOMALY": 220.4928, "EPHEMERIS_TYPE": 0, "CLASSIFICATION_TYPE": "U", "NORAD_CAT_ID": 34946, "ELEMENT_SET_NO": 999, "REV_AT_EPOCH": 88073, "BSTAR": 0.00076627, "MEAN_MOTION_DOT": 3.872e-05, "MEAN_MOTION_DDOT": 0}, "tle": {"line1": "1 34946U 93036ADZ 25337.44582803  .00003872  00000+0  76627-3 0  9991", "line2": "2 34946  74.0234 359.9203 0049090 139.9873 220.4928 14.61913344880730"}}, "geometry": {"type": "Point", "coordinates": [145.5709581736707, 62.5002070774925]}}, {"type": "Feature", "properties": {"norad_id": 34949, "name": "COSMOS 2251 DEB", "group": "cosmos-2251-debris", "lat": -7.437161054719803, "lon": 124.68932461151515, "alt_km": 640.501078911795, "timestamp": "2025-12-03T22:42:33.028224+00:00", "meta": {"OBJECT_NAME": "COSMOS 2251 DEB", "OBJECT_ID": "1993-036AEC", "EPOCH": "2025-12-03T03:11:45.204576", "MEAN_MOTION": 14.73888049, "ECCENTRICITY": 0.00804743, "INCLINATION": 74.0167, "RA_OF_ASC_NODE": 128.421, "ARG_OF_PERICENTER": 275.6913, "MEAN_ANOMALY": 83.5088, "EPHEMERIS_TYPE": 0, "CLASSIFICATION_TYPE": "U", "NORAD_CAT_ID": 34949, "ELEMENT_SET_NO": 999, "REV_AT_EPOCH": 88220, "BSTAR": 0.00069404332, "MEAN_MOTION_DOT": 4.76e-05, "MEAN_MOTION_DDOT": 0}, "tle": {"line1": "1 34949U 93036AEC 25337.13316209  .00004760  00000+0  69404-3 0  9997", "line2": "2 34949  74.0167 128.4210 0080474 275.6913  83.5088 14.73888049882204"}}, "geometry": {"type": "Point", "coordinates": [124.68932461151515, -7.437161054719803]}}]}